CCSDS_OMM_VERS,COMMENT,CREATION_DATE,ORIGINATOR,OBJECT_NAME,OBJECT_ID,CENTER_NAME,REF_FRAME,TIME_SYSTEM,MEAN_ELEMENT_THEORY,EPOCH,MEAN_MOTION,ECCENTRICITY,INCLINATION,RA_OF_ASC_NODE,ARG_OF_PERICENTER,MEAN_ANOMALY,EPHEMERIS_TYPE,CLASSIFICATION_TYPE,NORAD_CAT_ID,ELEMENT_SET_NO,REV_AT_EPOCH,BSTAR,MEAN_MOTION_DOT,MEAN_MOTION_DDOT,SEMIMAJOR_AXIS,PERIOD,APOAPSIS,PERIAPSIS,OBJECT_TYPE,RCS_SIZE,COUNTRY_CODE,LAUNCH_DATE,SITE,DECAY_DATE,FILE,GP_ID,TLE_LINE0,TLE_LINE1,TLE_LINE2
2,GENERATED VIA SPACE-TRACK.ORG API,2015-12-02T23:28:53,18 SPCS,GALILEO-FM2,2011-060B,EARTH,TEME,UTC,SGP4,2015-12-02T19:32:38.442912,1.70474302,0.0003236,55.4161,87.5071,276.1979,209.5073,0,U,37847,999,2562,0.0,-2.8e-07,0,29600.285,844.702,23231.728,23212.571,PAYLOAD,LARGE,ESA,2011-10-21,FRGUI,,1960996,101958331,0 GALILEO-FM2,1 37847U 11060B   15336.81433383 -.00000028  00000-0  00000+0 0  9998,2 37847  55.4161  87.5071 0003236 276.1979 209.5073  1.70474302 25625
2,GENERATED VIA SPACE-TRACK.ORG API,2015-12-04T17:20:35,18 SPCS,GALILEO-FM2,2011-060B,EARTH,TEME,UTC,SGP4,2015-12-03T18:49:52.680864,1.70474314,0.0003268,55.4167,87.4798,276.1782,85.0244,0,U,37847,999,2552,0.0,-2.9e-07,0,29600.283,844.702,23231.822,23212.475,PAYLOAD,LARGE,ESA,2011-10-21,FRGUI,,1961668,101987585,0 GALILEO-FM2,1 37847U 11060B   15337.78463751 -.00000029 +00000-0 +00000-0 0  9999,2 37847 055.4167 087.4798 0003268 276.1782 085.0244 01.70474314025522
2,GENERATED VIA SPACE-TRACK.ORG API,2015-12-07T15:38:35,18 SPCS,GALILEO-FM2,2011-060B,EARTH,TEME,UTC,SGP4,2015-12-07T07:29:49.894656,1.70474318,0.0003407,55.419,87.3807,276.0539,90.2065,0,U,37847,999,2570,0.0,-3e-07,0,29600.283,844.702,23232.233,23212.063,PAYLOAD,LARGE,ESA,2011-10-21,FRGUI,,1963138,102034232,0 GALILEO-FM2,1 37847U 11060B   15341.31238304 -.00000030  00000-0  00000+0 0  9998,2 37847  55.4190  87.3807 0003407 276.0539  90.2065  1.70474318 25705
2,GENERATED VIA SPACE-TRACK.ORG API,2015-12-10T16:30:46,18 SPCS,GALILEO-FM2,2011-060B,EARTH,TEME,UTC,SGP4,2015-12-09T03:59:35.797920,1.70474293,0.0003479,55.4202,87.3285,276.1862,147.9182,0,U,37847,999,2561,0.0,-2.8e-07,0,29600.286,844.702,23232.449,23211.853,PAYLOAD,LARGE,ESA,2011-10-21,FRGUI,,1964529,102099691,0 GALILEO-FM2,1 37847U 11060B   15343.16638655 -.00000028 +00000-0 +00000-0 0  9994,2 37847 055.4202 087.3285 0003479 276.1862 147.9182 01.70474293025610
2,GENERATED VIA SPACE-TRACK.ORG API,2015-12-10T07:17:41,18 SPCS,GALILEO-FM2,2011-060B,EARTH,TEME,UTC,SGP4,2015-12-10T02:12:36.079200,1.70474271,0.0003513,55.4207,87.3025,276.3379,355.8881,0,U,37847,999,2574,0.0,-2.6e-07,0,29600.288,844.702,23232.552,23211.755,PAYLOAD,LARGE,ESA,2011-10-21,FRGUI,,1964367,102088703,0 GALILEO-FM2,1 37847U 11060B   15344.09208425 -.00000026  00000-0  00000+0 0  9992,2 37847  55.4207  87.3025 0003513 276.3379 355.8881  1.70474271 25747
2,GENERATED VIA SPACE-TRACK.ORG API,2015-12-12T23:11:43,18 SPCS,GALILEO-FM2,2011-060B,EARTH,TEME,UTC,SGP4,2015-12-12T13:50:40.818912,1.70474212,0.0003595,55.4223,87.2326,276.602,80.588,0,U,37847,999,2578,0.0,-2e-07,0,29600.295,844.702,23232.801,23211.519,PAYLOAD,LARGE,ESA,2011-10-21,FRGUI,,1965616,102139765,0 GALILEO-FM2,1 37847U 11060B   15346.57686133 -.00000020  00000-0  00000+0 0  9997,2 37847  55.4223  87.2326 0003595 276.6020  80.5880  1.70474212 25784
2,GENERATED VIA SPACE-TRACK.ORG API,2015-12-17T15:08:43,18 SPCS,GALILEO-FM2,2011-060B,EARTH,TEME,UTC,SGP4,2015-12-17T06:49:21.184608,1.70474101,0.0003773,55.4252,87.1,277.3695,88.8649,0,U,37847,999,2587,0.0,-2e-07,0,29600.308,844.703,23233.341,23211.005,PAYLOAD,LARGE,ESA,2011-10-21,FRGUI,,1967663,102219157,0 GALILEO-FM2,1 37847U 11060B   15351.28427297 -.00000020  00000-0  00000+0 0  9995,2 37847  55.4252  87.1000 0003773 277.3695  88.8649  1.70474101 25879
2,GENERATED VIA SPACE-TRACK.ORG API,2015-12-19T17:15:21,18 SPCS,GALILEO-FM2,2011-060B,EARTH,TEME,UTC,SGP4,2015-12-18T10:40:56.626176,1.70474091,0.0003806,55.4259,87.0673,277.6568,81.0033,0,U,37847,999,2576,0.0,-2.7e-07,0,29600.309,844.703,23233.44,23210.908,PAYLOAD,LARGE,ESA,2011-10-21,FRGUI,,1968597,102264407,0 GALILEO-FM2,1 37847U 11060B   15352.44509984 -.00000027 +00000-0 +00000-0 0  9996,2 37847 055.4259 087.0673 0003806 277.6568 081.0033 01.70474091025768
2,GENERATED VIA SPACE-TRACK.ORG API,2015-12-22T07:23:16,18 SPCS,GALILEO-FM2,2011-060B,EARTH,TEME,UTC,SGP4,2015-12-22T01:25:07.459104,1.704741,0.0003951,55.4284,86.9653,278.523,138.1386,0,U,37847,999,2595,0.0,-5.3e-07,0,29600.308,844.703,23233.868,23210.478,PAYLOAD,LARGE,ESA,2011-10-21,FRGUI,,1969801,102307478,0 GALILEO-FM2,1 37847U 11060B   15356.05911411 -.00000053  00000-0  00000+0 0  9997,2 37847  55.4284  86.9653 0003951 278.5230 138.1386  1.70474100 25956
2,GENERATED VIA SPACE-TRACK.ORG API,2015-12-29T23:09:44,18 SPCS,GALILEO-FM2,2011-060B,EARTH,TEME,UTC,SGP4,2015-12-29T19:33:39.907872,1.70474284,0.0004254,55.4333,86.7467,279.9277,216.7238,0,U,37847,999,2608,0.0,-4.8e-07,0,29600.287,844.702,23234.744,23209.56,PAYLOAD,LARGE,ESA,2011-10-21,FRGUI,,1973342,102449044,0 GALILEO-FM2,1 37847U 11060B   15363.81504523 -.00000048  00000-0  00000+0 0  9995,2 37847  55.4333  86.7467 0004254 279.9277 216.7238  1.70474284 26082
2,GENERATED VIA SPACE-TRACK.ORG API,2016-01-01T16:20:10,18 SPCS,GALILEO-FM2,2011-060B,EARTH,TEME,UTC,SGP4,2015-12-31T07:42:24.387840,1.70474307,0.0004305,55.4342,86.7043,280.0852,60.8758,0,U,37847,999,2598,0.0,-4.9e-07,0,29600.284,844.702,23234.892,23209.406,PAYLOAD,LARGE,ESA,2011-10-21,FRGUI,,1974579,102500497,0 GALILEO-FM2,1 37847U 11060B   15365.32111560 -.00000049 +00000-0 +00000-0 0  9990,2 37847 055.4342 086.7043 0004305 280.0852 060.8758 01.70474307025980
2,GENERATED VIA SPACE-TRACK.ORG API,2016-01-06T15:08:01,18 SPCS,GALILEO-FM2,2011-060B,EARTH,TEME,UTC,SGP4,2016-01-06T08:27:46.882080,1.70474288,0.0004549,55.4382,86.5344,280.8191,161.8165,0,U,37847,999,2621,0.0,-4e-07,0,29600.286,844.702,23235.616,23208.686,PAYLOAD,LARGE,ESA,2011-10-21,FRGUI,,1976785,102582767,0 GALILEO-FM2,1 37847U 11060B   16006.35262595 -.00000040  00000-0  00000+0 0  9991,2 37847  55.4382  86.5344 0004549 280.8191 161.8165  1.70474288 26219
2,GENERATED VIA SPACE-TRACK.ORG API,2016-01-08T16:50:05,18 SPCS,GALILEO-FM2,2011-060B,EARTH,TEME,UTC,SGP4,2016-01-07T09:36:32.921856,1.70474266,0.0004581,55.4389,86.5049,281.033,84.6337,0,U,37847,999,2611,0.0,-3.6e-07,0,29600.289,844.702,23235.714,23208.594,PAYLOAD,LARGE,ESA,2011-10-21,FRGUI,,1977727,102625825,0 GALILEO-FM2,1 37847U 11060B   16007.40038104 -.00000036 +00000-0 +00000-0 0  9991,2 37847 055.4389 086.5049 0004581 281.0330 084.6337 01.70474266026110
2,GENERATED VIA SPACE-TRACK.ORG API,2016-01-09T16:43:48,18 SPCS,GALILEO-FM2,2011-060B,EARTH,TEME,UTC,SGP4,2016-01-08T01:28:18.844608,1.70474255,0.0004594,55.4393,86.4861,281.1037,130.2019,0,U,37847,999,2612,0.0,-3.3e-07,0,29600.29,844.702,23235.753,23208.557,PAYLOAD,LARGE,ESA,2011-10-21,FRGUI,,1978186,102643555,0 GALILEO-FM2,1 37847U 11060B   16008.06132922 -.00000033 +00000-0 +00000-0 0  9994,2 37847 055.4393 086.4861 0004594 281.1037 130.2019 01.70474255026129
2,GENERATED VIA SPACE-TRACK.ORG API,2016-01-09T07:27:22,18 SPCS,GALILEO-FM2,2011-060B,EARTH,TEME,UTC,SGP4,2016-01-09T00:28:52.855680,1.70474226,0.000462,55.4398,86.4591,281.3786,358.3195,0,U,37847,999,2625,0.0,-3e-07,0,29600.293,844.702,23235.834,23208.483,PAYLOAD,LARGE,ESA,2011-10-21,FRGUI,,1978006,102632100,0 GALILEO-FM2,1 37847U 11060B   16009.02005620 -.00000030  00000-0  00000+0 0  9991,2 37847  55.4398  86.4591 0004620 281.3786 358.3195  1.70474226 26257
2,GENERATED VIA SPACE-TRACK.ORG API,2016-01-11T16:39:20,18 SPCS,GALILEO-FM2,2011-060B,EARTH,TEME,UTC,SGP4,2016-01-10T08:12:55.471680,1.7047419,0.0004664,55.4406,86.4217,281.5862,89.608,0,U,37847,999,2616,0.0,-2.5e-07,0,29600.298,844.702,23235.968,23208.357,PAYLOAD,LARGE,ESA,2011-10-21,FRGUI,,1979034,102680628,0 GALILEO-FM2,1 37847U 11060B   16010.34230870 -.00000025 +00000-0 +00000-0 0  9990,2 37847 055.4406 086.4217 0004664 281.5862 089.6080 01.70474190026164
2,GENERATED VIA SPACE-TRACK.ORG API,2016-01-14T15:16:43,18 SPCS,GALILEO-FM2,2011-060B,EARTH,TEME,UTC,SGP4,2016-01-14T10:25:23.938176,1.70474106,0.0004815,55.4433,86.3063,282.5798,79.9645,0,U,37847,999,2635,0.0,-2.8e-07,0,29600.307,844.703,23236.425,23207.92,PAYLOAD,LARGE,ESA,2011-10-21,FRGUI,,1980221,102726383,0 GALILEO-FM2,1 37847U 11060B   16014.43430484 -.00000028  00000-0  00000+0 0  9999,2 37847  55.4433  86.3063 0004815 282.5798  79.9645  1.70474106 26356
2,GENERATED VIA SPACE-TRACK.ORG API,2016-01-15T18:15:37,18 SPCS,GALILEO-FM2,2011-060B,EARTH,TEME,UTC,SGP4,2016-01-14T16:21:44.710272,1.70474101,0.0004832,55.4435,86.2993,282.6572,231.7604,0,U,37847,999,2623,0.0,-3e-07,0,29600.308,844.703,23236.476,23207.87,PAYLOAD,LARGE,ESA,2011-10-21,FRGUI,,1980707,102754765,0 GALILEO-FM2,1 37847U 11060B   16014.68176748 -.00000030 +00000-0 +00000-0 0  9990,2 37847 055.4435 086.2993 0004832 282.6572 231.7604 01.70474101026234
2,GENERATED VIA SPACE-TRACK.ORG API,2016-01-17T15:26:40,18 SPCS,GALILEO-FM2,2011-060B,EARTH,TEME,UTC,SGP4,2016-01-17T08:51:36.668160,1.70474093,0.0004925,55.4453,86.2234,283.4688,80.2707,0,U,37847,999,2640,0.0,-4.8e-07,0,29600.309,844.703,23236.752,23207.596,PAYLOAD,LARGE,ESA,2011-10-21,FRGUI,,1981511,102779352,0 GALILEO-FM2,1 37847U 11060B   16017.36917440 -.00000048  00000-0  00000+0 0  9998,2 37847  55.4453  86.2234 0004925 283.4688  80.2707  1.70474093 26402
2,GENERATED VIA SPACE-TRACK.ORG API,2016-01-18T16:29:29,18 SPCS,GALILEO-FM2,2011-060B,EARTH,TEME,UTC,SGP4,2016-01-17T20:47:00.473280,1.70474097,0.0004943,55.4457,86.2094,283.583,25.0558,0,U,37847,999,2628,0.0,-5e-07,0,29600.308,844.703,23236.805,23207.542,PAYLOAD,LARGE,ESA,2011-10-21,FRGUI,,1981980,102806722,0 GALILEO-FM2,1 37847U 11060B   16017.86597770 -.00000050 +00000-0 +00000-0 0  9997,2 37847 055.4457 086.2094 0004943 283.5830 025.0558 01.70474097026281
